satname,norad_id,inclination_deg,eccentricity,mean_motion_rev_per_day,perigee_km,apogee_km,l1,l2
STARLINK-1008,44714,53.0551,0.0001519,15.06405261,546.1434757812376,548.2473917746192,1 44714U 19074B   25321.31329367  .00002278  00000+0  17174-3 0  9999,2 44714  53.0551 331.0932 0001519  83.2184 276.8978 15.06405261331817
STARLINK-1011,44717,53.0426,0.0004014,15.9727594,279.30687649486754,284.6536186212079,1 44717U 19074E   25321.91668980  .00433647  88714-4  96860-3 0  9995,2 44717  53.0426 300.2701 0004014  51.5325  56.4537 15.97275940  6058
STARLINK-1012,44718,53.0551,0.0001285,15.06409817,546.2915669871345,548.0713738340291,1 44718U 19074F   25321.42387170  .00001326  00000+0  10790-3 0  9991,2 44718  53.0551 330.5993 0001285  88.2257 271.8879 15.06409817331825
STARLINK-1017,44723,53.0532,0.0003769,15.16140815,514.9183430742205,520.1162872970081,1 44723U 19074L   25321.29580181  .00033846  00000+0  17418-2 0  9994,2 44723  53.0532 326.6872 0003769   6.7305 353.3738 15.16140815331876
STARLINK-1019,44724,53.0532,0.0001308,15.47291685,423.7629168032154,425.54252659441136,1 44724U 19074M   25321.91668980  .01254362  00000+0  21899-1 0  9994,2 44724  53.0532 325.2350 0001308  90.5167 261.0009 15.47291685  5697
STARLINK-1020,44725,53.057,0.0002041,15.06391632,545.8237358965935,548.650673646981,1 44725U 19074N   25321.49207358  .00004074  00000+0  29231-3 0  9998,2 44725  53.0570 350.2931 0002041 111.4006 248.7201 15.06391632331554
STARLINK-1031,44736,53.0489,0.000631,15.51187594,408.97214453107335,417.54288440833443,1 44736U 19074Z   25321.30642367  .00144794  00000+0  23971-2 0  9991,2 44736  53.0489 315.3079 0006310 345.5976  14.4852 15.51187594332044
STARLINK-1036,44741,53.055,0.0001445,15.06399761,546.2115774664844,548.2130034114207,1 44741U 19074AE  25321.78693429  .00001524  00000+0  12120-3 0  9992,2 44741  53.0550 348.9690 0001445  89.0964 271.0190 15.06399761331609
STARLINK-1039,44744,53.0517,0.00016,15.14073167,522.6894720720193,524.8980899219378,1 44744U 19074AH  25321.57359796  .00033742  00000+0  18410-2 0  9992,2 44744  53.0517   7.0350 0001600 227.9918 132.0938 15.14073167331330
STARLINK-1042,44747,53.0465,0.0003552,15.44059086,431.7244432899961,436.56388783000966,1 44747U 19074AL  25321.16699879  .00029815  00000+0  64913-3 0  9995,2 44747  53.0465 272.2452 0003552 121.1885 238.9469 15.44059086332658
STARLINK-1043,44748,53.055,0.0001323,15.17634407,512.0806009109065,513.9039937229763,1 44748U 19074AM  25321.91668980  .01114469  00000+0  50479-1 0  9999,2 44748  53.0550   8.1710 0001323  77.9785 167.1763 15.17634407  5842
STARLINK-1046,44751,53.056,0.0001333,15.06398962,546.291589873761,548.1378886474477,1 44751U 19074AQ  25321.50864360  .00000609  00000+0  59801-4 0  9998,2 44751  53.0560  10.2186 0001333 101.3681 258.7458 15.06398962331285
STARLINK-1047,44752,53.0728,0.000104,15.29747691,475.8530262113982,477.27880441778416,1 44752U 19074AR  25321.29167557  .00014258  00000+0  49943-3 0  9999,2 44752  53.0728 309.9393 0001040 204.5300 155.5650 15.29747691332123
STARLINK-1048,44753,53.0553,0.0001382,15.06401844,546.2488239599707,548.1629887392864,1 44753U 19074AS  25321.33541435  .00000132  00000+0  27722-4 0  9994,2 44753  53.0553 330.9958 0001382  96.1279 263.9867 15.06401844331811
STARLINK-1053,44758,53.0403,0.0005073,15.63135679,375.17815213615086,382.03354342951116,1 44758U 19074AX  25321.18127209  .00165536  00000+0  17500-2 0  9992,2 44758  53.0403 283.4157 0005073  84.6642 275.4950 15.63135679332488
STARLINK-1054,44759,53.0277,0.0003181,16.21190051,214.2250457758728,218.4204410646371,1 44759U 19074AY  25321.86678294  .01918196  11855-4  88035-3 0  9999,2 44759  53.0277 298.5941 0003181  73.4941 286.6446 16.21190051329965
STARLINK-1060,44765,53.0513,0.0006562,15.67267583,362.299109567919,371.1510665723026,1 44765U 19074BE  25321.81009343  .00128478  00000+0  11581-2 0  9995,2 44765  53.0513 326.1061 0006562  39.2148 320.9342 15.67267583331921
STARLINK-1063,44768,53.0552,0.0001455,15.06406407,546.1842861175774,548.199556833727,1 44768U 19074BH  25321.82932543  .00007542  00000+0  52457-3 0  9992,2 44768  53.0552   8.7802 0001455 100.9739 259.1413 15.06406407331342
STARLINK-1067,44771,53.055,0.0001214,15.06395036,546.3860327631974,548.0675110870216,1 44771U 19074BL  25321.55287326  .00002203  00000+0  16673-3 0  9997,2 44771  53.0550  10.0210 0001214  89.3468 270.7660 15.06395036331297
STARLINK-1068,44772,53.0543,0.0001384,15.06400568,546.251349101145,548.1682851001187,1 44772U 19074BM  25321.80904594  .00003664  00000+0  26476-3 0  9993,2 44772  53.0543 348.8700 0001384  97.1186 262.9960 15.06400568331606
STARLINK-1112,44925,53.049,0.0002378,15.57215244,394.11000006155973,397.33164684239364,1 44925U 20001M   25321.74195860  .00126559  00000+0  16877-2 0  9998,2 44925  53.0490  80.8902 0002378 237.2884 122.7898 15.57215244323650
STARLINK-1114,44927,53.0536,0.0001392,15.06405795,546.229791107884,548.1578032018115,1 44927U 20001P   25321.84775417 -.00000299  00000+0 -11989-5 0  9999,2 44927  53.0536 128.6976 0001392  80.6016 279.5131 15.06405795322990
STARLINK-1123,44930,53.0546,0.0002002,15.06397897,545.8315472662207,548.6044594095583,1 44930U 20001S   25321.72979552  .00000039  00000+0  21558-4 0  9998,2 44930  53.0546 129.2269 0002002  83.5954 276.5263 15.06397897322973
STARLINK-1144,44933,53.0426,0.0005348,15.65399227,368.4808105817292,375.700854271292,1 44933U 20001V   25321.59895823  .00135807  00000+0  13186-2 0  9992,2 44933  53.0426  57.7136 0005348 146.4171 213.7184 15.65399227325261
STARLINK-1094,44941,53.0527,0.0001332,15.06403297,546.278998044605,548.1239082085194,1 44941U 20001AD  25321.80904487 -.00001315  00000+0 -69371-4 0  9999,2 44941  53.0527 108.8703 0001332  83.2064 276.9077 15.06403297323266
STARLINK-1096,44942,52.9813,0.0005157,16.0676061,252.32362429230852,259.1658098953194,1 44942U 20001AE  25321.71262312  .00710884  26748-3  90704-3 0  9994,2 44942  52.9813 216.5843 0005157 148.0295 212.1051 16.06760610326768
STARLINK-1122,44949,53.0521,0.0001373,15.06406694,546.2401943282139,548.1418894085118,1 44949U 20001AM  25321.69847539  .00001174  00000+0  97670-4 0  9992,2 44949  53.0521 109.3614 0001373  85.7738 274.3408 15.06406694323247
STARLINK-1080,44961,53.0525,0.0001232,15.06409617,546.3288840641144,548.0352826862581,1 44961U 20001AZ  25321.76298295  .00002815  00000+0  20772-3 0  9994,2 44961  53.0525  89.0756 0001232 101.9528 258.1599 15.06409617323540
STARLINK-1090,44968,53.0528,0.0001224,15.06411089,546.3299134552608,548.0252304624764,1 44968U 20001BG  25321.76666650  .00003262  00000+0  23771-3 0  9994,2 44968  53.0528  89.0595 0001224 104.9346 255.1779 15.06411089323546
STARLINK-1107,44972,53.0064,0.0007851,15.78186075,330.3091518080246,340.85103038446505,1 44972U 20001BL  25321.91668980  .00336612  00000+0  18535-2 0  9993,2 44972  53.0064 354.5244 0007851  23.3723  67.7816 15.78186075  5912
STARLINK-1132,45044,53.0563,0.0001012,15.06399168,546.5132623675008,547.9149534317394,1 45044U 20006A   25321.65976468  .00003122  00000+0  22837-3 0  9991,2 45044  53.0563  49.5414 0001012  61.5922 298.5169 15.06399168319851
STARLINK-1131,45047,53.0551,0.0001405,15.06397775,546.2453648207093,548.1913896817168,1 45047U 20006D   25321.70222147 -.00002557  00000+0 -15282-3 0  9997,2 45047  53.0551  69.8886 0001405  79.1379 280.9769 15.06397775319578
STARLINK-1134,45048,53.0379,0.0006838,15.29717693,471.96822241124755,481.34283667465024,1 45048U 20006E   25321.91668980 -.00016366  00000+0 -54927-3 0  9992,2 45048  53.0379  43.9779 0006838 213.0658  19.5810 15.29717693  5907
STARLINK-1156,45054,53.0544,0.0001311,15.06399058,546.3065314596652,548.1223586085525,1 45054U 20006L   25321.73900690  .00002384  00000+0  17889-3 0  9995,2 45054  53.0544  69.1839 0001311  74.8356 285.2778 15.06399058319587
STARLINK-1159,45057,53.0552,0.0001594,15.51969959,409.89272747663745,412.0570963541559,1 45057U 20006P   25321.74754701  .00106719  00000+0  17294-2 0  9995,2 45057  53.0552  64.1548 0001594  19.2295 340.8774 15.51969959319665
STARLINK-1166,45060,53.0534,0.000136,15.06398696,546.2737065659358,548.1574024607635,1 45060U 20006S   25321.69846453 -.00000868  00000+0 -39372-4 0  9992,2 45060  53.0534  69.3648 0001360 101.8543 258.2598 15.06398696319583
STARLINK-1169,45061,53.0541,0.0001266,15.06400562,546.3330865803828,548.0865843991278,1 45061U 20006T   25321.70584170 -.00001298  00000+0 -68286-4 0  9994,2 45061  53.0541  69.3342 0001266  77.3147 282.7984 15.06400562319582
STARLINK-1171,45062,53.0546,0.0005301,15.35653116,455.3568919426343,462.60560470950986,1 45062U 20006U   25321.68561926  .00061649  00000+0  17489-2 0  9997,2 45062  53.0546  63.7557 0005301 334.2613  25.8124 15.35653116319669
STARLINK-1133,45064,53.0538,0.0001413,15.06394744,546.2491128406837,548.2062208955404,1 45064U 20006W   25321.63765138  .00003245  00000+0  23664-3 0  9996,2 45064  53.0538  49.6340 0001413 116.8913 243.2221 15.06394744319854
STARLINK-1167,45071,53.057,0.0001399,15.06409317,546.214150553953,548.1518550907422,1 45071U 20006AD  25321.66345638  .00003081  00000+0  22561-3 0  9999,2 45071  53.0570  49.5208 0001399  94.8748 265.2401 15.06409317319851
STARLINK-1168,45072,53.0553,0.0001058,15.06393139,546.4998818927243,547.9652900971223,1 45072U 20006AE  25321.66713037 -.00000786  00000+0 -33878-4 0  9997,2 45072  53.0553  49.5055 0001058  79.1644 280.9464 15.06393139319853
STARLINK-1172,45074,53.0555,0.0001179,15.06398912,546.3983935154574,548.0313914917097,1 45074U 20006AG  25321.67818580  .00002677  00000+0  19854-3 0  9995,2 45074  53.0555  49.4578 0001179 105.5968 254.5151 15.06398912319857
STARLINK-1153,45080,53.0546,0.0001214,15.0640287,546.3620255685146,548.0434980626833,1 45080U 20006AN  25321.65608096  .00005673  00000+0  39938-3 0  9993,2 45080  53.0546  49.5565 0001214  66.9158 293.1959 15.06402870319856
